{"type":"FeatureCollection","features":[{"type":"Feature","id":"merapi","properties":{"id":"merapi","name":"Gunung Merapi","elevation":2911,"rank":1,"type":"volcano","note":"Active stratovolcano; major 1822 eruption portended the Java War in local belief."},"geometry":{"type":"Point","coordinates":[110.444,-7.541]}},{"type":"Feature","id":"merbabu","properties":{"id":"merbabu","name":"Gunung Merbabu","elevation":3145,"rank":1,"type":"volcano","note":"Massive stratovolcano directly north of Merapi."},"geometry":{"type":"Point","coordinates":[110.439,-7.455]}},{"type":"Feature","id":"sumbing","properties":{"id":"sumbing","name":"Gunung Sumbing","elevation":3371,"rank":1,"type":"volcano","note":"Second highest peak in Central Java, guarding Kedu plain."},"geometry":{"type":"Point","coordinates":[110.07,-7.384]}},{"type":"Feature","id":"sindoro","properties":{"id":"sindoro","name":"Gunung Sindoro","elevation":3136,"rank":1,"type":"volcano","note":"Twin volcano opposite Mount Sumbing."},"geometry":{"type":"Point","coordinates":[109.998,-7.301]}},{"type":"Feature","id":"lawu","properties":{"id":"lawu","name":"Gunung Lawu","elevation":3265,"rank":1,"type":"volcano","note":"Sacred boundary mountain between Surakarta and East Java."},"geometry":{"type":"Point","coordinates":[111.192,-7.628]}},{"type":"Feature","id":"slamet","properties":{"id":"slamet","name":"Gunung Slamet","elevation":3428,"rank":1,"type":"volcano","note":"Highest peak in Central Java, towering over Banyumas and Tegal."},"geometry":{"type":"Point","coordinates":[109.213,-7.242]}},{"type":"Feature","id":"menoreh","properties":{"id":"menoreh","name":"Pegunungan Menoreh","elevation":1022,"rank":1,"type":"range","note":"Limestone ridge sanctuary harboring Diponegoro and rebel strongholds."},"geometry":{"type":"Point","coordinates":[110.155,-7.675]}},{"type":"Feature","id":"ungaran","properties":{"id":"ungaran","name":"Gunung Ungaran","elevation":2050,"rank":2,"type":"volcano","note":"Mountain fortress overlooking Semarang and Ambarawa."},"geometry":{"type":"Point","coordinates":[110.334,-7.181]}},{"type":"Feature","id":"cereme","properties":{"id":"cereme","name":"Gunung Cereme","elevation":3078,"rank":2,"type":"volcano","note":"Highest summit in West Java near Cirebon."},"geometry":{"type":"Point","coordinates":[108.4,-6.892]}},{"type":"Feature","id":"dieng","properties":{"id":"dieng","name":"Dataran Tinggi Dieng","elevation":2565,"rank":2,"type":"plateau","note":"Volcanic plateau and sacred antiquities site."},"geometry":{"type":"Point","coordinates":[109.91,-7.205]}},{"type":"Feature","id":"wilis","properties":{"id":"wilis","name":"Gunung Wilis","elevation":2563,"rank":2,"type":"volcano","note":"Extinct volcanic complex separating Madiun and Kediri."},"geometry":{"type":"Point","coordinates":[111.758,-7.808]}},{"type":"Feature","id":"kelud","properties":{"id":"kelud","name":"Gunung Kelud","elevation":1731,"rank":2,"type":"volcano","note":"Highly explosive volcano in Kediri/Blitar."},"geometry":{"type":"Point","coordinates":[112.308,-7.93]}},{"type":"Feature","id":"arjuna","properties":{"id":"arjuna","name":"Gunung Arjuno","elevation":3339,"rank":2,"type":"volcano","note":"Prominent peak of East Java overlooking Malang."},"geometry":{"type":"Point","coordinates":[112.583,-7.766]}},{"type":"Feature","id":"bromo","properties":{"id":"bromo","name":"Gunung Bromo","elevation":2329,"rank":2,"type":"volcano","note":"Tengger caldera sacred volcano."},"geometry":{"type":"Point","coordinates":[112.953,-7.942]}},{"type":"Feature","id":"semeru","properties":{"id":"semeru","name":"Gunung Semeru","elevation":3676,"rank":1,"type":"volcano","note":"Highest peak in Java (Mahameru)."},"geometry":{"type":"Point","coordinates":[112.922,-8.108]}},{"type":"Feature","id":"raung","properties":{"id":"raung","name":"Gunung Raung","elevation":3332,"rank":2,"type":"volcano","note":"Massive caldera volcano in the eastern salient of Java."},"geometry":{"type":"Point","coordinates":[114.045,-8.125]}}]}