{"type":"FeatureCollection","features":[{"type":"Feature","id":"yogyakarta-keraton","properties":{"id":"yogyakarta-keraton","name":"Keraton Yogyakarta","label":"Ngayogyakarta Hadiningrat","rank":1,"kind":"royal-seat"},"geometry":{"type":"Point","coordinates":[110.364,-7.805]}},{"type":"Feature","id":"surakarta-keraton","properties":{"id":"surakarta-keraton","name":"Keraton Surakarta","label":"Surakarta Hadiningrat","rank":1,"kind":"royal-seat"},"geometry":{"type":"Point","coordinates":[110.828,-7.578]}},{"type":"Feature","id":"batavia","properties":{"id":"batavia","name":"Batavia","label":"Batavia (Gouvernement)","rank":1,"kind":"capital"},"geometry":{"type":"Point","coordinates":[106.814,-6.135]}},{"type":"Feature","id":"surabaya","properties":{"id":"surabaya","name":"Surabaya","label":"Surabaya","rank":1,"kind":"port"},"geometry":{"type":"Point","coordinates":[112.738,-7.246]}},{"type":"Feature","id":"semarang","properties":{"id":"semarang","name":"Semarang","label":"Semarang","rank":2,"kind":"residency"},"geometry":{"type":"Point","coordinates":[110.421,-6.966]}},{"type":"Feature","id":"cirebon","properties":{"id":"cirebon","name":"Cirebon","label":"Cirebon","rank":2,"kind":"residency"},"geometry":{"type":"Point","coordinates":[108.557,-6.706]}},{"type":"Feature","id":"banten","properties":{"id":"banten","name":"Banten","label":"Banten","rank":2,"kind":"port"},"geometry":{"type":"Point","coordinates":[106.155,-6.035]}},{"type":"Feature","id":"pekalongan","properties":{"id":"pekalongan","name":"Pekalongan","label":"Pekalongan","rank":2,"kind":"residency"},"geometry":{"type":"Point","coordinates":[109.675,-6.889]}},{"type":"Feature","id":"tegal","properties":{"id":"tegal","name":"Tegal","label":"Tegal","rank":2,"kind":"port"},"geometry":{"type":"Point","coordinates":[109.14,-6.869]}},{"type":"Feature","id":"kudus","properties":{"id":"kudus","name":"Kudus","label":"Kudus","rank":2,"kind":"city"},"geometry":{"type":"Point","coordinates":[110.844,-6.805]}},{"type":"Feature","id":"jepara","properties":{"id":"jepara","name":"Jepara","label":"Jepara","rank":2,"kind":"port"},"geometry":{"type":"Point","coordinates":[110.668,-6.594]}},{"type":"Feature","id":"rembang","properties":{"id":"rembang","name":"Rembang","label":"Rembang","rank":2,"kind":"residency"},"geometry":{"type":"Point","coordinates":[111.343,-6.707]}},{"type":"Feature","id":"banyumas","properties":{"id":"banyumas","name":"Banyumas","label":"Banyumas","rank":2,"kind":"residency"},"geometry":{"type":"Point","coordinates":[109.294,-7.514]}},{"type":"Feature","id":"kedu","properties":{"id":"kedu","name":"Kedu","label":"Kedu","rank":2,"kind":"residency"},"geometry":{"type":"Point","coordinates":[110.198,-7.288]}},{"type":"Feature","id":"pasuruan","properties":{"id":"pasuruan","name":"Pasuruan","label":"Pasuruan","rank":2,"kind":"residency"},"geometry":{"type":"Point","coordinates":[112.907,-7.646]}},{"type":"Feature","id":"probolinggo","properties":{"id":"probolinggo","name":"Probolinggo","label":"Probolinggo","rank":2,"kind":"port"},"geometry":{"type":"Point","coordinates":[113.216,-7.754]}},{"type":"Feature","id":"gresik","properties":{"id":"gresik","name":"Gresik","label":"Gresik","rank":2,"kind":"port"},"geometry":{"type":"Point","coordinates":[112.656,-7.159]}},{"type":"Feature","id":"tuban","properties":{"id":"tuban","name":"Tuban","label":"Tuban","rank":2,"kind":"port"},"geometry":{"type":"Point","coordinates":[112.065,-6.898]}},{"type":"Feature","id":"magelang","properties":{"id":"magelang","name":"Magelang","label":"Magelang","rank":3,"kind":"fort-town"},"geometry":{"type":"Point","coordinates":[110.218,-7.47]}},{"type":"Feature","id":"salatiga","properties":{"id":"salatiga","name":"Salatiga","label":"Salatiga","rank":3,"kind":"town"},"geometry":{"type":"Point","coordinates":[110.508,-7.33]}},{"type":"Feature","id":"ambarawa","properties":{"id":"ambarawa","name":"Ambarawa","label":"Ambarawa","rank":3,"kind":"fort-town"},"geometry":{"type":"Point","coordinates":[110.404,-7.26]}},{"type":"Feature","id":"boyolali","properties":{"id":"boyolali","name":"Boyolali","label":"Boyolali","rank":3,"kind":"town"},"geometry":{"type":"Point","coordinates":[110.596,-7.534]}},{"type":"Feature","id":"klaten","properties":{"id":"klaten","name":"Klaten","label":"Klaten","rank":3,"kind":"town"},"geometry":{"type":"Point","coordinates":[110.603,-7.705]}},{"type":"Feature","id":"purworejo","properties":{"id":"purworejo","name":"Purworejo","label":"Purworejo","rank":3,"kind":"regency"},"geometry":{"type":"Point","coordinates":[110.008,-7.715]}},{"type":"Feature","id":"kebumen","properties":{"id":"kebumen","name":"Kebumen","label":"Kebumen","rank":3,"kind":"town"},"geometry":{"type":"Point","coordinates":[109.654,-7.67]}},{"type":"Feature","id":"wonosobo","properties":{"id":"wonosobo","name":"Wonosobo","label":"Wonosobo","rank":3,"kind":"town"},"geometry":{"type":"Point","coordinates":[109.901,-7.363]}},{"type":"Feature","id":"temanggung","properties":{"id":"temanggung","name":"Temanggung","label":"Temanggung","rank":3,"kind":"regency"},"geometry":{"type":"Point","coordinates":[110.174,-7.316]}},{"type":"Feature","id":"sragen","properties":{"id":"sragen","name":"Sragen","label":"Sragen","rank":3,"kind":"town"},"geometry":{"type":"Point","coordinates":[111.022,-7.427]}},{"type":"Feature","id":"ngawi","properties":{"id":"ngawi","name":"Ngawi","label":"Ngawi","rank":3,"kind":"fort-town"},"geometry":{"type":"Point","coordinates":[111.446,-7.404]}},{"type":"Feature","id":"madiun","properties":{"id":"madiun","name":"Madiun","label":"Madiun","rank":3,"kind":"regency"},"geometry":{"type":"Point","coordinates":[111.524,-7.629]}},{"type":"Feature","id":"ponorogo","properties":{"id":"ponorogo","name":"Ponorogo","label":"Ponorogo","rank":3,"kind":"regency"},"geometry":{"type":"Point","coordinates":[111.467,-7.869]}},{"type":"Feature","id":"pacitan","properties":{"id":"pacitan","name":"Pacitan","label":"Pacitan","rank":3,"kind":"port"},"geometry":{"type":"Point","coordinates":[111.098,-8.196]}},{"type":"Feature","id":"blora","properties":{"id":"blora","name":"Blora","label":"Blora","rank":3,"kind":"town"},"geometry":{"type":"Point","coordinates":[111.418,-6.97]}},{"type":"Feature","id":"cepu","properties":{"id":"cepu","name":"Cepu","label":"Cepu","rank":3,"kind":"town"},"geometry":{"type":"Point","coordinates":[111.589,-7.15]}},{"type":"Feature","id":"bojonegoro","properties":{"id":"bojonegoro","name":"Bojonegoro","label":"Bojonegoro","rank":3,"kind":"regency"},"geometry":{"type":"Point","coordinates":[111.882,-7.151]}},{"type":"Feature","id":"mojokerto","properties":{"id":"mojokerto","name":"Mojokerto","label":"Mojokerto","rank":3,"kind":"town"},"geometry":{"type":"Point","coordinates":[112.434,-7.472]}},{"type":"Feature","id":"jombang","properties":{"id":"jombang","name":"Jombang","label":"Jombang","rank":3,"kind":"town"},"geometry":{"type":"Point","coordinates":[112.233,-7.546]}},{"type":"Feature","id":"kediri","properties":{"id":"kediri","name":"Kediri","label":"Kediri","rank":3,"kind":"regency"},"geometry":{"type":"Point","coordinates":[112.012,-7.817]}},{"type":"Feature","id":"blitar","properties":{"id":"blitar","name":"Blitar","label":"Blitar","rank":3,"kind":"town"},"geometry":{"type":"Point","coordinates":[112.168,-8.098]}},{"type":"Feature","id":"malang","properties":{"id":"malang","name":"Malang","label":"Malang","rank":3,"kind":"residency"},"geometry":{"type":"Point","coordinates":[112.632,-7.979]}},{"type":"Feature","id":"kendal","properties":{"id":"kendal","name":"Kendal","label":"Kendal","rank":3,"kind":"town"},"geometry":{"type":"Point","coordinates":[110.203,-6.923]}},{"type":"Feature","id":"demak","properties":{"id":"demak","name":"Demak","label":"Demak","rank":3,"kind":"town"},"geometry":{"type":"Point","coordinates":[110.638,-6.894]}},{"type":"Feature","id":"purbalingga","properties":{"id":"purbalingga","name":"Purbalingga","label":"Purbalingga","rank":3,"kind":"town"},"geometry":{"type":"Point","coordinates":[109.364,-7.388]}},{"type":"Feature","id":"banjarnegara","properties":{"id":"banjarnegara","name":"Banjarnegara","label":"Banjarnegara","rank":3,"kind":"town"},"geometry":{"type":"Point","coordinates":[109.697,-7.397]}},{"type":"Feature","id":"cilacap","properties":{"id":"cilacap","name":"Cilacap","label":"Cilacap","rank":3,"kind":"port"},"geometry":{"type":"Point","coordinates":[109.006,-7.728]}},{"type":"Feature","id":"wonogiri","properties":{"id":"wonogiri","name":"Wonogiri","label":"Wonogiri","rank":3,"kind":"town"},"geometry":{"type":"Point","coordinates":[110.925,-7.814]}},{"type":"Feature","id":"karanganyar","properties":{"id":"karanganyar","name":"Karanganyar","label":"Karanganyar","rank":3,"kind":"town"},"geometry":{"type":"Point","coordinates":[110.952,-7.597]}},{"type":"Feature","id":"sukoharjo","properties":{"id":"sukoharjo","name":"Sukoharjo","label":"Sukoharjo","rank":3,"kind":"town"},"geometry":{"type":"Point","coordinates":[110.828,-7.684]}},{"type":"Feature","id":"banyuwangi","properties":{"id":"banyuwangi","name":"Banyuwangi","label":"Banyuwangi","rank":3,"kind":"port"},"geometry":{"type":"Point","coordinates":[114.369,-8.219]}}]}